OBJECT_NAME,OBJECT_ID,EPOCH,MEAN_MOTION,ECCENTRICITY,INCLINATION,RA_OF_ASC_NODE,ARG_OF_PERICENTER,MEAN_ANOMALY,EPHEMERIS_TYPE,CLASSIFICATION_TYPE,NORAD_CAT_ID,ELEMENT_SET_NO,REV_AT_EPOCH,BSTAR,MEAN_MOTION_DOT,MEAN_MOTION_DDOT
BEIDOU-2 IGSO-2,2010-068A,2026-06-18T16:24:29.017152,1.00282207,.00559072,47.5458,271.8126,212.7128,136.4505,0,U,37256,999,5680,0,-.219E-5,0
EUTELSAT KA-SAT 9A,2010-069A,2026-06-18T12:57:45.789120,1.00271107,.0003758,0.0601,13.2607,117.2858,339.6773,0,U,37258,999,4402,0,.55E-6,0
HISPASAT 30W-5,2010-070A,2026-06-18T19:37:24.444192,1.00271619,.00052207,0.0519,107.3835,357.5047,66.5188,0,U,37264,999,5320,0,-.222E-5,0
KOREASAT 6,2010-070B,2026-06-18T20:31:30.677088,1.00270888,.00021504,0.0169,58.0396,38.2695,278.5326,0,U,37265,999,5678,0,-.118E-5,0
BEIDOU-2 IGSO-3,2011-013A,2026-06-18T14:41:11.762880,1.00267082,.0034295,62.4088,40.1377,184.6608,10.0015,0,U,37384,999,5567,0,-.19E-5,0
INTELSAT 28 (IS-28),2011-016A,2026-06-18T21:19:35.704416,1.00271556,.0003625,1.8117,82.5964,6.8157,105.8883,0,U,37392,999,5330,0,-.232E-5,0
YAHSAT 1A,2011-016B,2026-06-18T21:43:38.966304,1.00269246,.00028974,0.0156,4.9722,93.8837,186.6990,0,U,37393,999,4242,0,0,0
SBIRS GEO-1 (USA 230),2011-019A,2026-06-18T20:00:40.345056,1.00271938,.0002023,4.5395,53.1233,27.3321,178.5814,0,U,37481,999,5541,0,.92E-6,0
TELSTAR 14R,2011-021A,2026-06-18T21:10:41.918304,1.00271703,.00022404,0.0207,61.0690,357.2759,103.4405,0,U,37602,999,5585,0,-.286E-5,0
GSAT-8,2011-022A,2026-06-18T21:29:01.029120,1.00271420,.00020927,2.1365,81.8041,198.1643,4.4963,0,U,37605,999,5323,0,.78E-6,0
ST-2,2011-022B,2026-06-18T21:53:45.496032,1.00271514,.00016659,0.0151,40.4724,56.1106,227.0137,0,U,37606,999,5529,0,-.218E-5,0
ZHONGXING-10,2011-026A,2026-06-19T03:00:57.479328,1.00273838,.0003412,1.0530,84.1847,1.3076,312.5721,0,U,37677,999,5501,0,-.195E-5,0
SES-3,2011-035A,2026-06-18T20:59:13.020000,1.00271420,.00023113,1.3322,83.0684,356.2232,39.6199,0,U,37748,999,5461,0,-.108E-5,0
KAZSAT-2,2011-035B,2026-06-18T21:53:23.032032,1.00271716,.00012879,0.0370,210.6827,305.1551,166.1736,0,U,37749,999,5341,0,-.204E-5,0
BEIDOU-2 IGSO-4,2011-038A,2026-06-16T16:27:02.962080,1.00285273,.01595197,54.6000,165.6770,231.4431,207.9860,0,U,37763,999,5464,0,.19E-6,0
ASTRA 1N,2011-041A,2026-06-16T23:22:14.594592,1.00271351,.00060468,0.0969,46.5691,49.0036,179.4178,0,U,37775,999,4452,0,.116E-5,0
BSAT-3C (JCSAT-110R),2011-041B,2026-06-18T21:59:59.898336,1.00268643,.00000815,0.0179,333.0828,186.3637,187.6436,0,U,37776,999,5048,0,-.357E-5,0
PAKSAT-1R,2011-042A,2026-06-18T19:56:48.215904,1.00267165,.00032974,0.6943,84.5779,338.5516,181.1341,0,U,37779,999,5449,0,.147E-5,0
SES-2,2011-049A,2026-06-18T21:03:50.077152,1.00271863,.0002627,0.0669,97.5930,348.0647,50.4044,0,U,37809,999,5398,0,-.202E-5,0
ARABSAT-5C,2011-049B,2026-06-18T21:34:22.601280,1.00272485,.00034574,0.0540,22.0886,83.7344,144.8939,0,U,37810,999,5405,0,.117E-5,0
EUTELSAT 7 WEST A,2011-051A,2026-06-18T21:26:30.856416,1.00271682,.0004159,0.0663,19.3790,78.7027,123.3489,0,U,37816,999,5389,0,-.67E-6,0
QUETZSAT 1,2011-054A,2026-06-18T21:06:42.300864,1.00272355,.00025685,0.0292,53.5517,34.3396,58.8956,0,U,37826,999,4989,0,-.248E-5,0
INTELSAT 18 (IS-18),2011-056A,2026-06-18T18:54:36.048672,1.00270806,.00017212,0.0379,272.9518,174.3334,283.3773,0,U,37834,999,5382,0,.46E-6,0
EUTELSAT 16A,2011-057A,2026-06-18T21:33:15.209280,1.00273040,.00057844,0.0409,342.5875,102.9508,160.9258,0,U,37836,999,735,0,.98E-6,0
VIASAT-1,2011-059A,2026-06-18T20:55:50.843136,1.00270488,.0002192,0.0014,354.4400,87.3093,24.2040,0,U,37843,999,4734,0,-.3E-6,0
ASIASAT 7,2011-069A,2026-06-18T23:41:25.556640,1.00271036,.00012476,0.0380,84.2344,338.6511,305.2075,0,U,37933,999,4487,0,-.34E-5,0
BEIDOU-2 IGSO-5,2011-073A,2026-06-18T16:01:15.839616,1.00272695,.01139717,47.6748,271.5267,221.7702,105.6518,0,U,37948,999,5314,0,-.192E-5,0
LUCH-5A,2011-074B,2026-06-18T12:35:26.577888,1.00270425,.00023353,8.7582,73.7878,26.9496,161.8222,0,U,37951,999,5306,0,-.6E-6,0
NIGCOMSAT 1R,2011-077A,2026-06-18T21:13:21.206208,1.00270624,.00025859,0.0455,112.9318,237.7525,277.2479,0,U,38014,999,5297,0,.139E-5,0
WGS F4 (USA 233),2012-003A,2026-06-18T21:53:52.984320,1.00271178,.00007009,0.0185,40.8741,255.8977,27.2505,0,U,38070,999,4416,0,-.221E-5,0
SES-4,2012-007A,2026-06-18T14:31:35.824800,1.00271107,.00026556,0.0256,35.9690,63.7931,2.9801,0,U,38087,999,5224,0,-.175E-5,0
BEIDOU-2 G5,2012-008A,2026-06-18T23:27:41.872608,1.00272333,.0009044,3.5789,69.6876,272.8470,335.2536,0,U,38091,999,5238,0,.5E-6,0
MUOS-1,2012-009A,2026-06-18T15:52:09.785568,1.00269989,.00584923,5.4788,47.1518,1.9390,355.8320,0,U,38093,999,5245,0,-.135E-5,0
INTELSAT 22 (IS-22),2012-011A,2026-06-18T21:49:08.438880,1.00272407,.00015416,0.0142,38.5274,52.9148,215.0872,0,U,38098,999,720,0,-.65E-6,0
APSTAR-7,2012-013A,2026-06-18T23:33:03.857760,1.00271524,.00025869,0.0263,71.2136,25.6266,240.1322,0,U,38107,999,5182,0,-.108E-5,0
YAHSAT 1B,2012-016A,2026-06-18T13:08:52.223424,1.00275734,.00023087,0.0917,90.3819,19.4635,41.7490,0,U,38245,999,4562,0,.12E-5,0
AEHF-2 (USA 235),2012-019A,2026-06-18T21:24:01.094976,1.00271619,.0002271,6.6543,57.4770,25.0402,129.0450,0,U,38254,999,700,0,-.144E-5,0
JCSAT-13,2012-023A,2026-06-18T22:03:59.514912,1.00270223,.00031096,0.0215,57.5787,54.4914,250.0707,0,U,38331,999,5155,0,-.363E-5,0
VINASAT-2,2012-023B,2026-06-18T22:06:14.299776,1.00269762,.00022006,0.0138,350.6712,106.0526,273.8310,0,U,38332,999,4667,0,-.335E-5,0
NIMIQ 6,2012-026A,2026-06-18T21:02:42.684288,1.00273012,.00025469,0.0099,330.7833,113.1543,47.7365,0,U,38342,999,5043,0,-.18E-5,0
ZHONGXING-2A,2012-028A,2026-06-18T21:56:37.720608,1.00269343,.00038369,1.4594,83.8471,47.1290,203.5558,0,U,38352,999,5131,0,-.299E-5,0
INTELSAT 19 (IS-19),2012-030A,2026-06-18T20:33:15.508800,1.00271441,.00029347,0.0186,6.0843,89.7952,285.5162,0,U,38356,999,5046,0,-.63E-6,0
ECHOSTAR 17,2012-035A,2026-06-18T20:57:58.138848,1.00271061,.00021281,0.0175,15.8816,71.3595,27.2539,0,U,38551,999,5108,0,-.82E-6,0
METEOSAT-10 (MSG-3),2012-035B,2026-06-18T21:28:45.640416,1.00266219,.00014272,4.6766,61.0163,0.8566,167.7502,0,U,38552,999,5087,0,-.14E-6,0
SES-5,2012-036A,2026-06-18T12:56:38.396256,1.00269306,.000172,0.0452,317.9851,125.6785,22.2406,0,U,38652,999,4447,0,.27E-6,0
INTELSAT 20 (IS-20),2012-043A,2026-06-18T20:05:25.673280,1.00271173,.0001439,0.0029,47.2647,132.1671,97.5047,0,U,38740,999,5076,0,-.31E-6,0
HYLAS 2,2012-043B,2026-06-18T21:07:57.182016,1.00272493,.00023546,2.4326,81.0492,27.0985,43.3742,0,U,38741,999,5079,0,-.265E-5,0
INTELSAT 21 (IS-21),2012-045A,2026-06-18T21:12:04.286880,1.00272539,.00013879,0.0181,6.9619,90.8469,69.3201,0,U,38749,999,5054,0,-.291E-5,0
ASTRA 2F,2012-051A,2026-06-18T21:36:37.386144,1.00270882,.00015788,0.0582,255.5564,281.4694,82.4297,0,U,38778,999,4115,0,.143E-5,0
GSAT-10,2012-051B,2026-06-18T21:52:15.640032,1.00272150,.00077639,0.0757,261.8446,186.2957,230.0771,0,U,38779,999,5011,0,-.171E-5,0
INTELSAT 23 (IS-23),2012-057A,2026-06-18T21:13:34.142880,1.00267436,.00001552,0.0104,321.9376,69.5371,141.0158,0,U,38867,999,4997,0,-.291E-5,0
BEIDOU-2 G6,2012-059A,2026-06-18T20:09:55.247328,1.00271655,.0009615,4.4263,73.5051,324.4090,255.6782,0,U,38953,999,4992,0,-.183E-5,0
LUCH-5B,2012-061A,2026-06-18T21:24:08.583264,1.00272094,.00024653,10.4892,49.8655,150.1855,11.8366,0,U,38977,999,4962,0,-.148E-5,0
YAMAL 300K,2012-061B,2026-06-19T03:28:45.751872,1.00271552,.0001098,0.0166,300.7137,314.8229,246.9878,0,U,38978,999,4965,0,.65E-6,0
STAR ONE C3,2012-062A,2026-06-18T21:07:12.253152,1.00270606,.0002343,0.0030,39.4191,61.8904,47.6117,0,U,38991,999,4978,0,-.255E-5,0
EUTELSAT 21B,2012-062B,2026-06-18T21:34:45.065280,1.00268926,.0003092,0.0655,348.1383,88.8610,175.4503,0,U,38992,999,4984,0,.123E-5,0
ECHOSTAR 16,2012-065A,2026-06-18T19:28:25.305600,1.00271066,.00021435,0.0174,23.1620,64.8226,49.6629,0,U,39008,999,4966,0,-.288E-5,0
ZHONGXING-12,2012-067A,2026-06-18T23:36:11.058912,1.00271338,.00027431,0.0433,90.0470,348.7478,269.9596,0,U,39017,999,4952,0,-.213E-5,0
EUTELSAT 70B,2012-069A,2026-06-18T21:48:45.974880,1.00271783,.00039006,0.0664,19.1001,60.8787,224.8416,0,U,39020,999,4952,0,-.5E-6,0
YAMAL 402,2012-070A,2026-06-18T23:26:56.944608,1.00272149,.00037278,1.2707,84.1377,3.5155,226.1867,0,U,39022,999,4941,0,.79E-6,0
SKYNET 5D,2012-075A,2026-06-18T21:43:38.966304,1.00271159,.00035667,0.0658,354.5288,101.2426,190.0428,0,U,39034,999,4917,0,.93E-6,0
MEXSAT 3,2012-075B,2026-06-18T20:55:43.354848,1.00273726,.00010418,0.0181,17.9909,43.0165,45.2443,0,U,39035,999,707,0,0,0
TDRS 11,2013-004A,2026-06-18T20:38:52.471392,1.00270080,.00053848,3.5230,31.2853,21.1862,349.9141,0,U,39070,999,4671,0,.71E-6,0
AMAZONAS 3,2013-006A,2026-06-18T21:11:11.869728,1.00271864,.00019929,0.0394,199.8638,291.7209,32.3356,0,U,39078,999,4493,0,-.289E-5,0
AZERSPACE 1,2013-006B,2026-06-18T21:14:33.287136,1.00270950,.00013541,0.0172,53.9103,63.6105,154.2075,0,U,39079,999,4882,0,.127E-5,0
SBIRS GEO-2 (USA 241),2013-011A,2026-06-18T12:41:09.878784,1.00271683,.0002124,4.4921,52.5106,28.0198,326.7276,0,U,39120,999,4854,0,-.294E-5,0
EUTELSAT 117 WEST A,2013-012A,2026-06-18T15:47:17.751840,1.00271608,.00027173,0.0186,28.5171,58.6529,299.7384,0,U,39122,999,4844,0,-.19E-6,0
ANIK G1,2013-014A,2026-06-18T20:58:05.627136,1.00271428,.00015547,0.0428,271.5222,169.4812,33.3047,0,U,39127,999,4827,0,-.8E-6,0
ZHONGXING-11,2013-020A,2026-06-18T17:51:28.567296,1.00266804,.00021198,0.0369,293.7123,142.2172,196.7857,0,U,39157,999,4791,0,-.296E-5,0
EUTELSAT 7B,2013-022A,2026-06-18T21:30:37.960416,1.00269786,.0004463,0.0640,354.9962,40.2303,201.5611,0,U,39163,999,4796,0,.41E-6,0
WGS F5 (USA 243),2013-024A,2026-06-18T19:31:02.555328,1.00267894,.0000336,0.0188,4.4404,328.5832,174.2786,0,U,39168,999,4719,0,0,0
SES-6,2013-026A,2026-06-18T21:17:05.943840,1.00270826,.00026213,0.0207,329.4839,142.3890,74.0079,0,U,39172,999,4774,0,-.268E-5,0
